STARLINK-30774          
1 58625U 23203H   26068.37429725 -.00000127  00000+0  49106-5 0  9992
2 58625  43.0040  68.8290 0001245 274.6375  85.4334 15.27574396123516
HAWK-11B                
1 62379U 24247C   26068.44730104  .00009093  00000+0  32842-3 0  9993
2 62379  45.0161 115.7610 0004690 333.0326  27.0314 15.28847070 67738
